[5261eureka]
absolute_magnitude             = 16.1
albedo                         = 0.182
discoverer                     = D.H. Levy, H.E. Holt
discovery                      = 1990-06-20
iau_designation                = 1990 MB
minor_planet_number            = 5261
name                           = Eureka
orbit_ArgOfPericenter          = 95.5415
orbit_AscendingNode            = 245.01615
orbit_Eccentricity             = 0.0646625
orbit_Epoch                    = 2460600.5
orbit_Inclination              = 20.28306
orbit_MeanAnomaly              = 22.39149
orbit_MeanMotion               = 0.52412882
orbit_SemiMajorAxis            = 1.5235055
radius                         = 0.939
spec_b                         = Sr
type                           = asteroid

[54pdevicoswiftneat(2024)]
absolute_magnitude             = 10
discoverer                     = F. de Vico
discovery                      = 1844-08-22
discovery_code                 = 1844b
iau_designation                = P/1844 Q1
name                           = 54P/deVico-Swift-NEAT (2024)
orbit_ArgOfPericenter          = 1.9972
orbit_AscendingNode            = 358.7956
orbit_Eccentricity             = 0.426459
orbit_Epoch                    = 2460665.5
orbit_Inclination              = 6.0637
orbit_PericenterDistance       = 2.171917
orbit_TimeAtPericenter         = 2460557.4734
orbit_good                     = 1000
perihelion_code                = 1844 I
ref                            = MPEC 2024-RQ6
slope_parameter                = 6
type                           = comet

[556372002ux25]
absolute_magnitude             = 3.8
albedo                         = 0.15
discoverer                     = Spacewatch at Kitt Peak
discovery                      = 2002-10-30
iau_designation                = 2002 UX25
minor_planet_number            = 55637
orbit_ArgOfPericenter          = 274.96751
orbit_AscendingNode            = 204.5433
orbit_Eccentricity             = 0.1429331
orbit_Epoch                    = 2460000.5
orbit_Inclination              = 19.38226
orbit_MeanAnomaly              = 306.66964
orbit_MeanMotion               = 0.00350266
orbit_SemiMajorAxis            = 42.9408913
radius                         = 597
type                           = cubewano

[89prussell(2024)]
absolute_magnitude             = 11.5
discoverer                     = K.S. Russell
discovery                      = 1980-09-28
discovery_code                 = 1980o
iau_designation                = P/1980 S1
name                           = 89P/Russell (2024)
orbit_ArgOfPericenter          = 250.4061
orbit_AscendingNode            = 41.3443
orbit_Eccentricity             = 0.407584
orbit_Epoch                    = 2460665.5
orbit_Inclination              = 12.0721
orbit_PericenterDistance       = 2.221971
orbit_TimeAtPericenter         = 2460396.1007
orbit_good                     = 1000
perihelion_code                = 1980 III
ref                            = MPEC 2023-J29
slope_parameter                = 6
type                           = comet

[90377sedna]
absolute_magnitude             = 1.5
albedo                         = 0.32
discoverer                     = M.E. Brown, C.A. Trujillo, D.L. Rabinowitz
discovery                      = 2003-11-14
iau_designation                = 2003 VB12
minor_planet_number            = 90377
name                           = Sedna
orbit_ArgOfPericenter          = 310.87403
orbit_AscendingNode            = 144.39469
orbit_Eccentricity             = 0.8618058
orbit_Epoch                    = 2460600.5
orbit_Inclination              = 11.92774
orbit_MeanAnomaly              = 358.59443
orbit_MeanMotion               = 7.597e-05
orbit_SemiMajorAxis            = 552.1531164
radius                         = 1643
slope_parameter                = 0.15
tex_map                        = sedna.png
type                           = sednoid

[90482orcus]
absolute_magnitude             = 2.2
albedo                         = 0.25
discoverer                     = M.E. Brown, C.A. Trujillo, D.L. Rabinowitz
discovery                      = 2004-02-17
iau_designation                = 2004 DW
minor_planet_number            = 90482
name                           = Orcus
orbit_ArgOfPericenter          = 73.82944
orbit_AscendingNode            = 268.39889
orbit_Eccentricity             = 0.224754
orbit_Epoch                    = 2460600.5
orbit_Inclination              = 20.55649
orbit_MeanAnomaly              = 186.3685
orbit_MeanMotion               = 0.00401014
orbit_SemiMajorAxis            = 39.2370318
radius                         = 1190
slope_parameter                = 0.15
type                           = plutino

[951gaspra]
absolute_magnitude             = 11.46
albedo                         = 0.246
color                          = 1., 0.904, 0.791
color_index_bv                 = 0.870
discoverer                     = G.N. Neujmin
discovery                      = 1916-07-30
iau_designation                = 1916 S45
minor_planet_number            = 951
model                          = 951gaspra_21_MLfix.obj
name                           = Gaspra
orbit_ArgOfPericenter          = 129.95486
orbit_AscendingNode            = 252.98893
orbit_Eccentricity             = 0.1732495
orbit_Epoch                    = 2460600.5
orbit_Inclination              = 4.10611
orbit_MeanAnomaly              = 293.00134
orbit_MeanMotion               = 0.30002114
orbit_SemiMajorAxis            = 2.2098772
radius                         = 18
rot_pole_de                    = 26.70
rot_pole_ra                    = 9.47
rot_pole_w0                    = 83.67
rot_pole_w1                    = 1226.9114850
slope_parameter                = 0.15
spec_b                         = S
spec_t                         = S
tex_map                        = gaspra.png
type                           = asteroid

[99942apophis]
absolute_magnitude             = 19.7
albedo                         = 0.23
discoverer                     = R.A. Tucker, D.J. Tholen, F. Bernardi
discovery                      = 2004-06-19
iau_designation                = 2004 MN4
minor_planet_number            = 99942
name                           = Apophis
orbit_ArgOfPericenter          = 126.67242
orbit_AscendingNode            = 203.90419
orbit_Eccentricity             = 0.1911496
orbit_Epoch                    = 2460600.5
orbit_Inclination              = 3.34099
orbit_MeanAnomaly              = 227.7639
orbit_MeanMotion               = 1.11259693
orbit_SemiMajorAxis            = 0.922382
radius                         = 1
slope_parameter                = 0.15
spec_b                         = Sq
type                           = asteroid

